{"type": "FeatureCollection", "features": [{"type": "Feature", "properties": {"norad_id": 50032, "name": "COSMOS 1408 DEB", "group": "cosmos-1408-debris", "lat": 10.596929340497173, "lon": 63.24795459133264, "alt_km": 439.8941089230693, "timestamp": "2025-12-09T11:33:55.070216+00:00", "meta": {"OBJECT_NAME": "COSMOS 1408 DEB", "OBJECT_ID": "1982-092RU", "EPOCH": "2025-12-08T23:05:19.988160", "MEAN_MOTION": 15.456342, "ECCENTRICITY": 0.0014933, "INCLINATION": 82.5642, "RA_OF_ASC_NODE": 62.3805, "ARG_OF_PERICENTER": 223.1585, "MEAN_ANOMALY": 136.8494, "EPHEMERIS_TYPE": 0, "CLASSIFICATION_TYPE": "U", "NORAD_CAT_ID": 50032, "ELEMENT_SET_NO": 999, "REV_AT_EPOCH": 22545, "BSTAR": 0.00013893, "MEAN_MOTION_DOT": 6.758e-05, "MEAN_MOTION_DDOT": 0}, "tle": {"line1": "1 50032U 82092RU  25342.96203690  .00006758  00000+0  13893-3 0  9994", "line2": "2 50032  82.5642  62.3805 0014933 223.1585 136.8494 15.45634200225452"}}, "geometry": {"type": "Point", "coordinates": [63.24795459133264, 10.596929340497173]}}, {"type": "Feature", "properties": {"norad_id": 50058, "name": "COSMOS 1408 DEB", "group": "cosmos-1408-debris", "lat": -1.8526062260154499, "lon": 72.51001589516355, "alt_km": 384.1767262634776, "timestamp": "2025-12-09T11:33:55.070237+00:00", "meta": {"OBJECT_NAME": "COSMOS 1408 DEB", "OBJECT_ID": "1982-092SW", "EPOCH": "2025-12-08T07:55:44.645376", "MEAN_MOTION": 15.63709561, "ECCENTRICITY": 0.0016354, "INCLINATION": 82.6131, "RA_OF_ASC_NODE": 73.955, "ARG_OF_PERICENTER": 114.3465, "MEAN_ANOMALY": 245.9504, "EPHEMERIS_TYPE": 0, "CLASSIFICATION_TYPE": "U", "NORAD_CAT_ID": 50058, "ELEMENT_SET_NO": 999, "REV_AT_EPOCH": 22735, "BSTAR": 0.0004087218, "MEAN_MOTION_DOT": 0.00038485, "MEAN_MOTION_DDOT": 0}, "tle": {"line1": "1 50058U 82092SW  25342.33037784  .00038485  00000+0  40872-3 0  9991", "line2": "2 50058  82.6131  73.9550 0016354 114.3465 245.9504 15.63709561227354"}}, "geometry": {"type": "Point", "coordinates": [72.51001589516355, -1.8526062260154499]}}, {"type": "Feature", "properties": {"norad_id": 50404, "name": "COSMOS 1408 DEB", "group": "cosmos-1408-debris", "lat": -18.27772426576927, "lon": -144.22660822616197, "alt_km": 610.2115043413369, "timestamp": "2025-12-09T11:33:55.070250+00:00", "meta": {"OBJECT_NAME": "COSMOS 1408 DEB", "OBJECT_ID": "1982-092ADS", "EPOCH": "2025-12-09T02:07:31.132992", "MEAN_MOTION": 15.1299152, "ECCENTRICITY": 0.0173495, "INCLINATION": 82.2038, "RA_OF_ASC_NODE": 218.7693, "ARG_OF_PERICENTER": 211.4724, "MEAN_ANOMALY": 147.6039, "EPHEMERIS_TYPE": 0, "CLASSIFICATION_TYPE": "U", "NORAD_CAT_ID": 50404, "ELEMENT_SET_NO": 999, "REV_AT_EPOCH": 21138, "BSTAR": 0.0031721, "MEAN_MOTION_DOT": 0.00081978, "MEAN_MOTION_DDOT": 0}, "tle": {"line1": "1 50404U 82092ADS 25343.08855478  .00081978  00000+0  31721-2 0  9994", "line2": "2 50404  82.2038 218.7693 0173495 211.4724 147.6039 15.12991520211384"}}, "geometry": {"type": "Point", "coordinates": [-144.22660822616197, -18.27772426576927]}}, {"type": "Feature", "properties": {"norad_id": 50621, "name": "COSMOS 1408 DEB", "group": "cosmos-1408-debris", "lat": 76.45882341649856, "lon": -135.23632548388932, "alt_km": 382.00698719096, "timestamp": "2025-12-09T11:33:55.070262+00:00", "meta": {"OBJECT_NAME": "COSMOS 1408 DEB", "OBJECT_ID": "1982-092ALR", "EPOCH": "2025-12-08T18:09:24.571296", "MEAN_MOTION": 15.56343365, "ECCENTRICITY": 0.00288369, "INCLINATION": 82.5706, "RA_OF_ASC_NODE": 78.3265, "ARG_OF_PERICENTER": 167.0351, "MEAN_ANOMALY": 193.1653, "EPHEMERIS_TYPE": 0, "CLASSIFICATION_TYPE": "U", "NORAD_CAT_ID": 50621, "ELEMENT_SET_NO": 999, "REV_AT_EPOCH": 22188, "BSTAR": 0.00048240761, "MEAN_MOTION_DOT": 0.00034742, "MEAN_MOTION_DDOT": 0}, "tle": {"line1": "1 50621U 82092ALR 25342.75653439  .00034742  00000+0  48241-3 0  9994", "line2": "2 50621  82.5706  78.3265 0028836 167.0351 193.1653 15.56343365221885"}}, "geometry": {"type": "Point", "coordinates": [-135.23632548388932, 76.45882341649856]}}]}